start=new Date('2022-03-15T00:00:00.000Z').valueOf();
sats=[{"RA_OF_ASC_NODE":"307.2348","TIME_SYSTEM":"UTC","SITE":"AFETR","MEAN_MOTION_DDOT":"0.0000000000000","OBJECT_ID":"2021-018AG","PERIOD":"95.591","REV_AT_EPOCH":"5715","EPOCH":"2022-03-14T19:53:00.897504","LAUNCH_DATE":"2021-03-11","CLASSIFICATION_TYPE":"U","INCLINATION":"53.0564","DECAY_DATE":null,"TLE_LINE1":"1 47817U 21018AG  22073.82848261  .00013129  00000-0  89821-3 0  9999","ARG_OF_PERICENTER":"70.5061","SEMIMAJOR_AXIS":"6925.294","MEAN_MOTION":"15.06417924","MEAN_MOTION_DOT":"0.00013129","RCS_SIZE":"LARGE","OBJECT_NAME":"STARLINK-2400","GP_ID":"198769065","TLE_LINE2":"2 47817  53.0564 307.2348 0001592  70.5061 289.6099 15.06417924 57155","OBJECT_TYPE":"PAYLOAD","PERIAPSIS":"546.056","MEAN_ELEMENT_THEORY":"SGP4","ELEMENT_SET_NO":"999","EPHEMERIS_TYPE":"0","CENTER_NAME":"EARTH","MEAN_ANOMALY":"289.6099","BSTAR":"0.00089821000000","FILE":"3359665","APOAPSIS":"548.261","NORAD_CAT_ID":"47817","REF_FRAME":"TEME","COUNTRY_CODE":"US","ECCENTRICITY":"0.00015920"},{"ARG_OF_PERICENTER":"65.6088","TLE_LINE1":"1 47818U 21018AH  22073.85567985  .00001457  00000-0  11669-3 0  9990","DECAY_DATE":null,"SEMIMAJOR_AXIS":"6925.375","INCLINATION":"53.0539","LAUNCH_DATE":"2021-03-11","CLASSIFICATION_TYPE":"U","RCS_SIZE":"LARGE","MEAN_MOTION_DOT":"0.00001457","MEAN_MOTION":"15.06391373","PERIOD":"95.593","TIME_SYSTEM":"UTC","RA_OF_ASC_NODE":"312.1208","SITE":"AFETR","MEAN_MOTION_DDOT":"0.0000000000000","OBJECT_ID":"2021-018AH","EPOCH":"2022-03-14T20:32:10.739040","REV_AT_EPOCH":"5709","CENTER_NAME":"EARTH","MEAN_ANOMALY":"294.5071","FILE":"3359665","BSTAR":"0.00011669000000","EPHEMERIS_TYPE":"0","REF_FRAME":"TEME","COUNTRY_CODE":"US","ECCENTRICITY":"0.00016260","NORAD_CAT_ID":"47818","APOAPSIS":"548.366","TLE_LINE2":"2 47818  53.0539 312.1208 0001626  65.6088 294.5071 15.06391373 57097","OBJECT_TYPE":"PAYLOAD","OBJECT_NAME":"STARLINK-2401","GP_ID":"198769316","MEAN_ELEMENT_THEORY":"SGP4","PERIAPSIS":"546.114","ELEMENT_SET_NO":"999"},{"MEAN_ELEMENT_THEORY":"SGP4","PERIAPSIS":"545.867","ELEMENT_SET_NO":"999","TLE_LINE2":"2 47819  53.0534 307.2232 0001798  57.1443 302.9719 15.06433234 57227","OBJECT_TYPE":"PAYLOAD","OBJECT_NAME":"STARLINK-2402","GP_ID":"198767565","REF_FRAME":"TEME","COUNTRY_CODE":"US","ECCENTRICITY":"0.00017980","APOAPSIS":"548.357","NORAD_CAT_ID":"47819","CENTER_NAME":"EARTH","MEAN_ANOMALY":"302.9719","BSTAR":"0.00099263000000","FILE":"3359665","EPHEMERIS_TYPE":"0","EPOCH":"2022-03-14T19:58:18.565248","REV_AT_EPOCH":"5722","PERIOD":"95.590","RA_OF_ASC_NODE":"307.2232","TIME_SYSTEM":"UTC","MEAN_MOTION_DDOT":"0.0000000000000","SITE":"AFETR","OBJECT_ID":"2021-018AJ","RCS_SIZE":"LARGE","MEAN_MOTION_DOT":"0.00014548","MEAN_MOTION":"15.06433234","DECAY_DATE":null,"TLE_LINE1":"1 47819U 21018AJ  22073.83215932  .00014548  00000-0  99263-3 0  9992","ARG_OF_PERICENTER":"57.1443","SEMIMAJOR_AXIS":"6925.247","CLASSIFICATION_TYPE":"U","LAUNCH_DATE":"2021-03-11","INCLINATION":"53.0534"},{"REV_AT_EPOCH":"5708","EPOCH":"2022-03-14T21:05:59.569152","PERIOD":"95.591","SITE":"AFETR","MEAN_MOTION_DDOT":"0.0000000000000","OBJECT_ID":"2021-018AK","RA_OF_ASC_NODE":"317.0197","TIME_SYSTEM":"UTC","RCS_SIZE":"LARGE","MEAN_MOTION_DOT":"0.00013191","MEAN_MOTION":"15.06419804","SEMIMAJOR_AXIS":"6925.288","TLE_LINE1":"1 47820U 21018AK  22073.87916168  .00013191  00000-0  90229-3 0  9993","DECAY_DATE":null,"ARG_OF_PERICENTER":"60.1590","CLASSIFICATION_TYPE":"U","LAUNCH_DATE":"2021-03-11","INCLINATION":"53.0537","ELEMENT_SET_NO":"999","MEAN_ELEMENT_THEORY":"SGP4","PERIAPSIS":"546.004","OBJECT_TYPE":"PAYLOAD","TLE_LINE2":"2 47820  53.0537 317.0197 0001659  60.1590 299.9564 15.06419804 57088","GP_ID":"198767814","OBJECT_NAME":"STARLINK-2403","ECCENTRICITY":"0.00016590","COUNTRY_CODE":"US","REF_FRAME":"TEME","APOAPSIS":"548.302","NORAD_CAT_ID":"47820","BSTAR":"0.00090229000000","FILE":"3359665","CENTER_NAME":"EARTH","MEAN_ANOMALY":"299.9564","EPHEMERIS_TYPE":"0"},{"OBJECT_TYPE":"PAYLOAD","TLE_LINE2":"2 47821  53.0542 307.4095 0001596  72.1288 287.9875 15.06397358 57151","GP_ID":"198768566","OBJECT_NAME":"STARLINK-2406","ELEMENT_SET_NO":"999","PERIAPSIS":"546.116","MEAN_ELEMENT_THEORY":"SGP4","BSTAR":"0.00045203000000","FILE":"3359665","MEAN_ANOMALY":"287.9875","CENTER_NAME":"EARTH","EPHEMERIS_TYPE":"0","ECCENTRICITY":"0.00015960","COUNTRY_CODE":"US","REF_FRAME":"TEME","APOAPSIS":"548.327","NORAD_CAT_ID":"47821","PERIOD":"95.592","OBJECT_ID":"2021-018AL","SITE":"AFETR","MEAN_MOTION_DDOT":"0.0000000000000","RA_OF_ASC_NODE":"307.4095","TIME_SYSTEM":"UTC","REV_AT_EPOCH":"5715","EPOCH":"2022-03-14T18:58:35.736960","SEMIMAJOR_AXIS":"6925.357","DECAY_DATE":null,"TLE_LINE1":"1 47821U 21018AL  22073.79069140  .00006457  00000-0  45203-3 0  9993","ARG_OF_PERICENTER":"72.1288","CLASSIFICATION_TYPE":"U","LAUNCH_DATE":"2021-03-11","INCLINATION":"53.0542","MEAN_MOTION_DOT":"0.00006457","RCS_SIZE":"LARGE","MEAN_MOTION":"15.06397358"},{"EPOCH":"2022-03-14T19:14:31.523136","REV_AT_EPOCH":"5702","OBJECT_ID":"2021-018AM","SITE":"AFETR","MEAN_MOTION_DDOT":"0.0000000000000","TIME_SYSTEM":"UTC","RA_OF_ASC_NODE":"317.3580","PERIOD":"95.592","MEAN_MOTION":"15.06404314","RCS_SIZE":"LARGE","MEAN_MOTION_DOT":"0.00002827","INCLINATION":"53.0564","LAUNCH_DATE":"2021-03-11","CLASSIFICATION_TYPE":"U","SEMIMAJOR_AXIS":"6925.335","ARG_OF_PERICENTER":"52.8183","DECAY_DATE":null,"TLE_LINE1":"1 47822U 21018AM  22073.80175374  .00002827  00000-0  20858-3 0  9999","ELEMENT_SET_NO":"999","PERIAPSIS":"546.015","MEAN_ELEMENT_THEORY":"SGP4","GP_ID":"198768817","OBJECT_NAME":"STARLINK-2407","OBJECT_TYPE":"PAYLOAD","TLE_LINE2":"2 47822  53.0564 317.3580 0001711  52.8183 307.2962 15.06404314 57023","NORAD_CAT_ID":"47822","APOAPSIS":"548.385","COUNTRY_CODE":"US","ECCENTRICITY":"0.00017110","REF_FRAME":"TEME","EPHEMERIS_TYPE":"0","FILE":"3359665","BSTAR":"0.00020858000000","MEAN_ANOMALY":"307.2962","CENTER_NAME":"EARTH"},{"MEAN_MOTION":"15.06353490","RCS_SIZE":"LARGE","MEAN_MOTION_DOT":"-0.00002372","INCLINATION":"53.0544","LAUNCH_DATE":"2021-03-11","CLASSIFICATION_TYPE":"U","SEMIMAJOR_AXIS":"6925.491","ARG_OF_PERICENTER":"74.2569","DECAY_DATE":null,"TLE_LINE1":"1 47823U 21018AN  22073.88380497 -.00002372  00000-0 -14060-3 0  9997","REV_AT_EPOCH":"5717","EPOCH":"2022-03-14T21:12:40.749408","SITE":"AFETR","MEAN_MOTION_DDOT":"0.0000000000000","OBJECT_ID":"2021-018AN","TIME_SYSTEM":"UTC","RA_OF_ASC_NODE":"306.9998","PERIOD":"95.595","NORAD_CAT_ID":"47823","APOAPSIS":"548.440","COUNTRY_CODE":"US","ECCENTRICITY":"0.00015650","REF_FRAME":"TEME","EPHEMERIS_TYPE":"0","FILE":"3359665","BSTAR":"-0.00014060000000","MEAN_ANOMALY":"285.8593","CENTER_NAME":"EARTH","ELEMENT_SET_NO":"999","MEAN_ELEMENT_THEORY":"SGP4","PERIAPSIS":"546.272","GP_ID":"198768065","OBJECT_NAME":"STARLINK-2408","OBJECT_TYPE":"PAYLOAD","TLE_LINE2":"2 47823  53.0544 306.9998 0001565  74.2569 285.8593 15.06353490 57177"},{"FILE":"3359665","BSTAR":"0.00012878000000","MEAN_ANOMALY":"300.1372","CENTER_NAME":"EARTH","EPHEMERIS_TYPE":"0","COUNTRY_CODE":"US","ECCENTRICITY":"0.00015030","REF_FRAME":"TEME","NORAD_CAT_ID":"47824","APOAPSIS":"548.306","OBJECT_TYPE":"PAYLOAD","TLE_LINE2":"2 47824  53.0543 307.0414 0001503  59.9766 300.1372 15.06383040 57162","GP_ID":"198768314","OBJECT_NAME":"STARLINK-2409","ELEMENT_SET_NO":"999","MEAN_ELEMENT_THEORY":"SGP4","PERIAPSIS":"546.225","SEMIMAJOR_AXIS":"6925.401","ARG_OF_PERICENTER":"59.9766","TLE_LINE1":"1 47824U 21018AP  22073.87273326  .00001636  00000-0  12878-3 0  9994","DECAY_DATE":null,"INCLINATION":"53.0543","CLASSIFICATION_TYPE":"U","LAUNCH_DATE":"2021-03-11","MEAN_MOTION_DOT":"0.00001636","RCS_SIZE":"LARGE","MEAN_MOTION":"15.06383040","PERIOD":"95.593","MEAN_MOTION_DDOT":"0.0000000000000","SITE":"AFETR","OBJECT_ID":"2021-018AP","TIME_SYSTEM":"UTC","RA_OF_ASC_NODE":"307.0414","REV_AT_EPOCH":"5716","EPOCH":"2022-03-14T20:56:44.153664"},{"TIME_SYSTEM":"UTC","RA_OF_ASC_NODE":"307.2570","SITE":"AFETR","MEAN_MOTION_DDOT":"0.0000000000000","OBJECT_ID":"2021-018AQ","PERIOD":"95.592","EPOCH":"2022-03-14T19:47:43.148544","REV_AT_EPOCH":"5716","INCLINATION":"53.0539","LAUNCH_DATE":"2021-03-11","CLASSIFICATION_TYPE":"U","ARG_OF_PERICENTER":"62.5647","TLE_LINE1":"1 47825U 21018AQ  22073.82480496 -.00001710  00000-0 -95931-4 0  9995","DECAY_DATE":null,"SEMIMAJOR_AXIS":"6925.362","MEAN_MOTION":"15.06395731","MEAN_MOTION_DOT":"-0.00001710","RCS_SIZE":"LARGE","OBJECT_NAME":"STARLINK-2410","GP_ID":"198769066","TLE_LINE2":"2 47825  53.0539 307.2570 0001458  62.5647 297.5490 15.06395731 57160","OBJECT_TYPE":"PAYLOAD","MEAN_ELEMENT_THEORY":"SGP4","PERIAPSIS":"546.217","ELEMENT_SET_NO":"999","EPHEMERIS_TYPE":"0","CENTER_NAME":"EARTH","MEAN_ANOMALY":"297.5490","FILE":"3359665","BSTAR":"-0.00009593100000","NORAD_CAT_ID":"47825","APOAPSIS":"548.236","REF_FRAME":"TEME","ECCENTRICITY":"0.00014580","COUNTRY_CODE":"US"},{"EPHEMERIS_TYPE":"0","CENTER_NAME":"EARTH","MEAN_ANOMALY":"306.8747","FILE":"3359665","BSTAR":"0.00020719000000","NORAD_CAT_ID":"47826","APOAPSIS":"548.436","REF_FRAME":"TEME","COUNTRY_CODE":"US","ECCENTRICITY":"0.00017280","OBJECT_NAME":"STARLINK-2411","GP_ID":"198769317","TLE_LINE2":"2 47826  53.0543 307.2795 0001728  53.2400 306.8747 15.06391482 57167","OBJECT_TYPE":"PAYLOAD","MEAN_ELEMENT_THEORY":"SGP4","PERIAPSIS":"546.043","ELEMENT_SET_NO":"999","INCLINATION":"53.0543","LAUNCH_DATE":"2021-03-11","CLASSIFICATION_TYPE":"U","ARG_OF_PERICENTER":"53.2400","DECAY_DATE":null,"TLE_LINE1":"1 47826U 21018AR  22073.82111853  .00002805  00000-0  20719-3 0  9999","SEMIMAJOR_AXIS":"6925.375","MEAN_MOTION":"15.06391482","RCS_SIZE":"LARGE","MEAN_MOTION_DOT":"0.00002805","TIME_SYSTEM":"UTC","RA_OF_ASC_NODE":"307.2795","SITE":"AFETR","MEAN_MOTION_DDOT":"0.0000000000000","OBJECT_ID":"2021-018AR","PERIOD":"95.593","REV_AT_EPOCH":"5716","EPOCH":"2022-03-14T19:42:24.640992"}];
